[{"OBJECT_NAME":"STARLINK-4443","OBJECT_ID":"2022-099AV","EPOCH":"2026-03-09T21:15:02.117088","MEAN_MOTION":15.0564675,"ECCENTRICITY":4.33e-5,"INCLINATION":97.6042,"RA_OF_ASC_NODE":191.4361,"ARG_OF_PERICENTER":255.1395,"MEAN_ANOMALY":104.9784,"EPHEMERIS_TYPE":0,"CLASSIFICATION_TYPE":"U","NORAD_CAT_ID":53508,"ELEMENT_SET_NO":999,"REV_AT_EPOCH":19608,"BSTAR":6.6264518e-5,"MEAN_MOTION_DOT":8.95e-6,"MEAN_MOTION_DDOT":0},{"OBJECT_NAME":"COSMOS 2251 DEB","OBJECT_ID":"1993-036AXJ","EPOCH":"2026-03-07T16:14:39.475392","MEAN_MOTION":15.02350149,"ECCENTRICITY":0.00052276,"INCLINATION":74.0329,"RA_OF_ASC_NODE":161.7612,"ARG_OF_PERICENTER":248.7206,"MEAN_ANOMALY":111.3424,"EPHEMERIS_TYPE":0,"CLASSIFICATION_TYPE":"U","NORAD_CAT_ID":36047,"ELEMENT_SET_NO":999,"REV_AT_EPOCH":67212,"BSTAR":0.0041103158,"MEAN_MOTION_DOT":0.00054783,"MEAN_MOTION_DDOT":0}]
